[{"OBJECT_NAME":"STARLINK-32918","OBJECT_ID":"2025-037L","EPOCH":"2026-03-09T22:03:31.625856","MEAN_MOTION":14.98330356,"ECCENTRICITY":0.00027164,"INCLINATION":70.004,"RA_OF_ASC_NODE":353.9874,"ARG_OF_PERICENTER":250.6935,"MEAN_ANOMALY":109.3931,"EPHEMERIS_TYPE":0,"CLASSIFICATION_TYPE":"U","NORAD_CAT_ID":63087,"ELEMENT_SET_NO":999,"REV_AT_EPOCH":5872,"BSTAR":0.00049256549,"MEAN_MOTION_DOT":5.789e-5,"MEAN_MOTION_DDOT":0},{"OBJECT_NAME":"COSMOS 2251 DEB","OBJECT_ID":"1993-036BKG","EPOCH":"2026-03-09T09:02:46.626720","MEAN_MOTION":15.0055284,"ECCENTRICITY":0.00290136,"INCLINATION":74.0178,"RA_OF_ASC_NODE":205.5033,"ARG_OF_PERICENTER":262.6992,"MEAN_ANOMALY":97.0897,"EPHEMERIS_TYPE":0,"CLASSIFICATION_TYPE":"U","NORAD_CAT_ID":37316,"ELEMENT_SET_NO":999,"REV_AT_EPOCH":87440,"BSTAR":0.002851028,"MEAN_MOTION_DOT":0.00036448,"MEAN_MOTION_DDOT":0}]
